OBJECT_NAME,OBJECT_ID,EPOCH,MEAN_MOTION,ECCENTRICITY,INCLINATION,RA_OF_ASC_NODE,ARG_OF_PERICENTER,MEAN_ANOMALY,EPHEMERIS_TYPE,CLASSIFICATION_TYPE,NORAD_CAT_ID,ELEMENT_SET_NO,REV_AT_EPOCH,BSTAR,MEAN_MOTION_DOT,MEAN_MOTION_DDOT
GEOSCAN 3 (RS92S3),2025-155T,2026-07-09T06:44:27.339072,15.36167091,.00086166,97.4543,160.4277,102.5549,257.6659,0,U,64893,999,8424,.40136941E-3,.14088E-3,0
INNOSAT 3 (RS92S0),2025-155U,2026-07-09T06:34:28.083360,15.45496033,.00082999,97.4490,162.3248,103.7967,256.4206,0,U,64894,999,8437,.69430457E-3,.33337E-3,0
KNACKSAT-2,1998-067XZ,2026-07-08T06:51:35.208288,15.61884949,.00082087,51.6260,188.2015,303.7179,56.3032,0,U,67683,999,2357,.40782476E-3,.35828E-3,0
