GEOSCAN-3 (RS92S3)
1 64893U 25155T   26190.28087198  .00014088  00000-0  40137-3 0  9998
2 64893  97.4543 160.4277 0008617 102.5549 257.6659 15.36167091 84246
INNOSAT3 (RS92S0)
1 64894U 25155U   26190.27393615  .00033337  00000-0  69430-3 0  9997
2 64894  97.4490 162.3248 0008300 103.7967 256.4206 15.45496033 84373
KNACKSAT-2
1 67683U 98067XZ  26189.28582417  .00035828  00000-0  40782-3 0  9993
2 67683  51.6260 188.2015 0008209 303.7179  56.3032 15.61884949 23577
